sat1_satellite_id,sat1_epoch,sat1_mean_motion,sat1_eccentricity,sat1_inclination,sat1_raan,sat1_argument_of_perigee,sat1_mean_anomaly,sat1_perigee,sat1_apogee,sat1_period,sat1_semi_major_axis,sat1_orbital_energy,sat1_orbital_angular_momentum,sat1_rev_number,sat1_bstar,sat1_mean_motion_derivative,sat1_cluster,sat2_satellite_id,sat2_epoch,sat2_mean_motion,sat2_eccentricity,sat2_inclination,sat2_raan,sat2_argument_of_perigee,sat2_mean_anomaly,sat2_perigee,sat2_apogee,sat2_period,sat2_semi_major_axis,sat2_orbital_energy,sat2_orbital_angular_momentum,sat2_rev_number,sat2_bstar,sat2_mean_motion_derivative,sat2_cluster,mean_motion_difference,eccentricity_difference,inclination_difference,raan_difference,argument_of_perigee_difference,mean_anomaly_difference,perigee_difference,apogee_difference,period_difference,semi_major_axis_difference,orbital_energy_difference,orbital_angular_momentum_difference,bstar_difference,mean_motion_derivative_difference,synodic_period,close_approach
5253,25035.83497711,15.08839052,0.000139,0.9288258306678383,5.9389906707230375,1.5003740368061775,4.784820144342454,545.9217008455244,547.8448723992042,1.590626910682583,6917.883286622365,-28809422.281726252,52511629960.33742,12616,0.00020355000000000001,2.953e-05,0,5871,25036.20505695,14.98321937,0.0003262,1.2217269857375266,1.8604127722123316,4.719064864773568,1.5654922711980859,576.9506641640237,581.4849862731962,1.601791938523821,6950.21782521861,-28675392.039778445,52634205617.20524,10895,-3.6933e-05,-5.34e-06,0,0.10517115000000032,-0.00018720000000000002,-0.2929011550696883,4.078577898510706,-3.2186908279673903,3.219327873144368,-31.028963318499336,-33.64011387399205,-0.011165027841238073,-32.33453859624569,-134030.24194780737,-122575656.86782074,0.00024048300000000002,3.4869999999999996e-05,228.19946344601857,False
2611,25036.09388994,15.24095105,0.0004985,0.9257243805870444,5.172014457580389,1.949558954416446,4.336291470530936,497.2154906388696,504.0665167195366,1.574704880375557,6871.641003679203,-29003293.506353285,52335823861.8648,21446,0.0028923,0.00071546,0,7635,25035.65533316,15.02534104,4.64e-05,0.7504619077602778,2.591318265704013,4.7850330745111975,1.4995292974482122,565.9004821717554,566.5442564076257,1.5973015145618261,6937.2223692896905,-28729109.47503713,52584977848.339836,7108,0.0001008,1.158e-05,0,0.2156100099999989,0.00045210000000000004,0.17526247282676666,2.5806961918763758,-2.8354741200947515,2.836762173082724,-68.68499153288576,-62.47773968808906,-0.022596634186269116,-65.58136561048741,-274184.0313161537,-249153986.47503662,0.0027915,0.00070388,111.31208611325754,False
669,25035.76347034,1.00269296,0.000481,0.0014590952546672594,4.757313755331024,0.40874214818305604,2.7224710323451267,35774.148160976314,35814.71130437915,23.935542541357787,42165.42973267773,-4726626.104928431,129642412163.6554,4022,0.0,1.49e-06,1,4634,25035.62428417,15.08854135,0.0001422,0.9288502652773662,1.93909570555074,1.8822049532527327,4.402983991908143,545.8534678135811,547.8209007087853,1.590611010255141,6917.837184261183,-28809614.2756047,52511454961.64585,13793,-2.2126000000000002e-06,-3.23e-06,0,-14.085848389999999,0.0003388,-0.927391170022699,2.8182180497802842,-1.4734628050696768,-1.6805129595630164,35228.29469316273,35266.89040367036,22.344931531102645,35247.59254841655,24082988.17067627,77130957202.00955,2.2126000000000002e-06,4.72e-06,-1.7038377338377677,False
8823,25036.07078229,13.75467262,0.0059521,1.701722200633251,1.0186439646339704,3.549463882476104,2.7310109283751354,943.3484865978689,1030.9413151267136,1.7448615945320818,7358.144900862291,-27085661.343342703,54155848261.244255,3931,0.008308,8.072e-05,0,9193,25035.52400498,15.30199765,0.0001042,0.9277803784458937,2.22660728389027,1.359231005526648,4.925903834427416,481.63865172830356,483.0668904457989,1.5684226693107592,6853.352771087051,-29080689.05205179,52266140212.43774,3763,0.00012677,3.397e-05,0,-1.5473250300000014,0.0058479000000000005,0.7739418221873574,-1.2079633192562995,2.190232876949456,-2.1948929060522806,461.7098348695654,547.8744246809147,0.17643892522132254,504.79212977524,1995027.7087090872,1889708048.8065186,0.00818123,4.675e-05,-15.510639028439899,False
1532,25036.04976736,15.45368561,0.0007955,0.9257976844156282,4.742352792982928,1.9402546041740643,4.346171779426475,432.01623589519295,442.8484517542165,1.5530275822661808,6808.432343824705,-29272556.564473562,52094552717.51942,28076,0.0014457,0.00070416,0,6419,25035.40316354,14.98331238,0.0002862,1.2217252404082748,0.5000490480011394,4.719059628785812,1.5655760470021816,577.1999184244751,581.1782066438691,1.6017819952840069,6950.189062534172,-28675510.710111722,52634097351.4241,9693,1.994e-05,1.45e-06,0,0.47037323000000164,0.0005093,-0.29592755599264664,4.242303744981788,-2.7788050246117484,2.7805957324242936,-145.18368252928212,-138.32975488965258,-0.048754413017826126,-141.75671870946735,-597045.8543618396,-539544633.904686,0.00142576,0.00070271,51.023311849614046,False
1532,25036.04976736,15.45368561,0.0007955,0.9257976844156282,4.742352792982928,1.9402546041740643,4.346171779426475,432.01623589519295,442.8484517542165,1.5530275822661808,6808.432343824705,-29272556.564473562,52094552717.51942,28076,0.0014457,0.00070416,0,8405,25035.29304028,15.36398937,0.0009793,1.7015581396835637,2.89509631267213,3.4652482554088735,2.819486904146484,457.2119978217788,470.5988435787631,1.5620942856718445,6834.905420700271,-29159177.579311796,52195724993.32349,5123,0.0012638,0.00045062,0,0.08969624000000032,-0.00018380000000000002,-0.7757604552679356,1.8472564803107976,-1.5249936512348092,1.5266848752799915,-25.195761926585874,-27.75039182454657,-0.009066703405663734,-26.47307687556622,-113378.98516176641,-101172275.80406952,0.00018190000000000003,0.00025354,267.569744283605,False
2505,25035.56039252,15.06400195,0.0001359,0.9259146214755118,4.169659650855281,1.4266775091407167,4.858502709373899,553.4068055036214,555.2891150792293,1.5932021304604234,6925.347960291425,-28778369.266461127,52539953422.21693,21625,0.00020935000000000002,2.838e-05,0,10223,25035.67446246,15.40727866,0.0001274,0.7505107769793337,4.6933963074644875,4.687477895970975,1.5969465949775277,450.2277537013297,451.96602398860796,1.5577053241925314,6822.096888844969,-29213924.127328392,52146819555.557304,1387,-0.00023287,-0.00010027,0,-0.3432767099999996,8.49999999999999e-06,0.17540384449617819,-0.5237366566092065,-3.260800386830258,3.261556114396371,103.17905180229172,103.32309109062135,0.03549680626789198,103.25107144645608,435554.8608672656,393133866.6596222,0.00044222,0.00012865,-69.91444307421854,False
1769,25036.25002315,15.50586318,0.0001142,0.9259739626700796,0.9916699010443981,1.285944630235406,0.0998188705800597,421.37430433463123,422.92585981337743,1.5478016103583316,6793.150082074004,-29338409.79399531,52036070072.73771,26506,0.018776,0.01201163,0,8061,25035.82243271,15.76712726,0.0001503,0.9278152850309336,1.3334961257059916,1.6558130599887924,4.629454424988423,345.8891327868032,347.90853317599885,1.5221542646444,6717.898832981401,-29667047.07155446,51747051918.957756,6388,2.4178e-05,3.301e-05,0,-0.2612640800000001,-3.6099999999999997e-05,-0.001841322360853992,-0.3418262246615935,-0.3698684297533863,-4.5296355544083635,75.48517154782803,75.01732663737857,0.02564734571393168,75.25124909260285,328637.27755915,289018153.779953,0.018751822,0.01197862,-91.86107787951839,False
5569,25036.21167689,13.17648391,0.0001648,1.5342700762091592,1.8310039743162272,1.4551385932529883,4.830348803209978,1199.6047516302033,1202.100434244836,1.8214267299173563,7571.852592937519,-26321196.623121396,54937634703.53891,10213,3.1452e-05,2.5e-07,0,7815,25035.31207700,15.30186497,0.0001565,0.9278362289819575,0.9023404592688243,1.4471816371931463,4.83805966784529,481.3198313312678,483.46494314847314,1.5684362688504345,6853.392387239871,-29080520.95062749,52266290919.43958,6889,0.0001166,3.094e-05,0,-2.1253810600000005,8.299999999999985e-06,0.6064338472272017,0.9286635150474029,0.007956956059842035,-0.007710864635311232,718.2849202989355,718.6354910963628,0.2529904610669218,718.4602056976482,2759324.327506095,2671343784.099327,-8.5148e-05,-3.069e-05,-11.292092722422202,False
4892,25035.96926088,15.08853158,0.0001352,0.9287856880950425,4.1781978015560375,1.6339440844613033,4.65124311537032,545.9048785232608,547.7754625053667,1.5906120401943031,6917.840170514314,-28809601.839237463,52511466346.5531,13391,0.00017747,2.539e-05,0,5074,25035.46420027,15.08847136,0.0001392,0.9288171040215784,3.6970367067199805,1.5596454182039048,4.725550508273979,545.895611238926,547.821543066806,1.5906183885283898,6917.858577152866,-28809525.184312828,52511536177.61257,12920,-2.3976000000000002e-05,-6.7e-06,0,6.021999999994421e-05,-3.999999999999989e-06,-3.1415926535882654e-05,0.48116109483605696,0.07429866625739856,-0.07430739290365818,0.009267284334782744,-0.04608056143933936,-6.348334086636598e-06,-0.018406638551823562,-76.65492463484406,-69831.05947113037,0.00020144599999999998,3.209e-05,398538.69151790097,False
2505,25035.56039252,15.06400195,0.0001359,0.9259146214755118,4.169659650855281,1.4266775091407167,4.858502709373899,553.4068055036214,555.2891150792293,1.5932021304604234,6925.347960291425,-28778369.266461127,52539953422.21693,21625,0.00020935000000000002,2.838e-05,0,10232,25035.69221337,15.40695379,0.0002032,0.7505613915276415,4.680421529805162,4.549844721817205,1.7344349068033809,449.80651911993664,452.5790582692616,1.5577381698631012,6822.192788694599,-29213513.465973943,52147185421.0435,1404,-3.7022000000000003e-06,-4.58e-06,0,-0.34295183999999956,-6.730000000000001e-05,0.1753532299478704,-0.5107618789498813,-3.1231672126764884,3.1240678025705177,103.60028638368476,102.71005680996768,0.03546396059732215,103.15517159682622,435144.19951281697,392768001.17342377,0.00021305220000000002,3.2959999999999996e-05,-69.98067133857637,False
